BEIDOU 3 (C01)          
1 36287U 10001A   21085.84436421 -.00000286  00000-0  00000+0 0  9992
2 36287   1.7501  42.8737 0002781  86.6476 139.3309  1.00274041 41022
BEIDOU 5 (C06)          
1 36828U 10036A   21085.58488101 -.00000150  00000-0  00000+0 0  9994
2 36828  54.1723 180.3651 0109140 234.5403  98.1422  1.00287019 39074
BEIDOU 6 (C04)          
1 37210U 10057A   21085.61593083 -.00000120  00000-0  00000-0 0  9991
2 37210   0.9977  55.8367 0002931 190.3649 319.7199  1.00270485 38140
BEIDOU 7 (C07)          
1 37256U 10068A   21085.84280259 -.00000174  00000-0  00000+0 0  9994
2 37256  51.0017 294.9814 0082035 215.9731  96.4858  1.00282163 37656
BEIDOU 8 (C08)          
1 37384U 11013A   21085.82311613 -.00000162  00000-0  00000+0 0  9991
2 37384  59.6658  58.7351 0053789 207.7628 334.1010  1.00277033 36531
BEIDOU 9 (C09)          
1 37763U 11038A   21085.64996318 -.00000114  00000-0  00000+0 0  9997
2 37763  54.4615 182.7944 0079645 224.6581 106.0997  1.00282268 35501
BEIDOU 10 (C10)         
1 37948U 11073A   21085.53159356 -.00000115  00000-0  00000+0 0  9993
2 37948  51.1039 294.6003 0069127 214.5511 322.4293  1.00271894 34262
BEIDOU 11 (C05)         
1 38091U 12008A   21085.81116481  .00000049  00000-0  00000+0 0  9990
2 38091   1.3778  64.8560 0008312 303.4490 166.9823  1.00277264 33342
BEIDOU 12 (C11)         
1 38250U 12018A   21084.56766017 -.00000081  00000-0  00000+0 0  9992
2 38250  56.7575   8.3813 0022404 252.4936 319.8427  1.86234361 60724
BEIDOU 13 (C12)         
1 38251U 12018B   21084.35213690 -.00000082  00000-0  00000-0 0  9996
2 38251  56.6804   7.7431 0013707 258.8960 213.3731  1.86234219 60729
BEIDOU 15 (C14)         
1 38775U 12050B   21084.95134039  .00000062  00000-0  00000-0 0  9995
2 38775  55.1679 126.7982 0015143 315.7372  35.6533  1.86232357 58108
BEIDOU 16 (C02)         
1 38953U 12059A   21085.60085888 -.00000180  00000-0  00000-0 0  9994
2 38953   1.7678  84.8423 0009851 276.0689 123.5704  1.00268621 30910
BEIDOU 17 (C31)         
1 40549U 15019A   21085.10605023 -.00000145  00000-0  00000-0 0  9992
2 40549  52.6246 317.9513 0036471 187.6000 172.5184  1.00284446 21944
BEIDOU 18 (C57)         
1 40748U 15037A   21085.17866689 -.00000081  00000-0  00000+0 0  9995
2 40748  55.9442   6.8524 0005454 353.2297 223.1764  1.86233354 38560
BEIDOU 19 (C58)         
1 40749U 15037B   21084.11782462 -.00000083  00000-0  00000-0 0  9998
2 40749  55.9465   6.8755 0006995 322.4182  39.2166  1.86232251 38549
BEIDOU 20 (C18)         
1 40938U 15053A   21084.02329755 -.00000073  00000-0  00000-0 0  9997
2 40938  52.1929 281.0220 0047048 189.2061 174.5300  1.00256083 20208
BEIDOU IGSO-6 (C13)     
1 41434U 16021A   21085.38774155 -.00000126  00000-0  00000+0 0  9991
2 41434  57.4457  57.5136 0040398 216.9650 145.1641  1.00286196 18341
BEIDOU-2 G7 (C03)       
1 41586U 16037A   21085.74966350 -.00000360  00000-0  00000+0 0  9996
2 41586   1.5261  64.7219 0009384  10.2696 129.8299  1.00274415 17640
BEIDOU-3 M1 (C19)       
1 43001U 17069A   21085.28102541  .00000065  00000-0  00000-0 0  9991
2 43001  55.3247 126.7262 0011048 286.4894  82.1878  1.86231712 23052
BEIDOU-3 M2 (C20)       
1 43002U 17069B   21085.20009712  .00000064  00000-0  00000+0 0  9998
2 43002  55.3223 126.7661 0009776 304.9465  53.0507  1.86231467 23036
BEIDOU-3 M3 (C27)       
1 43107U 18003A   21084.19575601 -.00000083  00000-0  00000-0 0  9998
2 43107  55.3852   8.0036 0005100  30.3885 180.1173  1.86232517 21789
BEIDOU-3 M4 (C28)       
1 43108U 18003B   21085.84190044 -.00000081  00000-0  00000+0 0  9993
2 43108  55.3788   7.9389 0003429 267.2652  12.0832  1.86232503 21816
BEIDOU-3 M5 (C21)       
1 43207U 18018A   21085.33572811  .00000065  00000-0  00000-0 0  9991
2 43207  55.2826 126.8555 0006626 322.7061  37.3352  1.86231576 21194
BEIDOU-3 M6 (C22)       
1 43208U 18018B   21084.86546374  .00000062  00000-0  00000+0 0  9990
2 43208  55.2806 126.8759 0009388 295.0647  64.9286  1.86231732 21184
BEIDOU-3 M7 (C29)       
1 43245U 18029A   21084.33742267 -.00000083  00000-0  00000-0 0  9999
2 43245  55.3201   5.7948 0001585 337.1122 238.5223  1.86232564 20326
BEIDOU-3 M8 (C30)       
1 43246U 18029B   21083.27003476 -.00000085  00000-0  10000-3 0  9990
2 43246  55.3172   5.8636 0005422 346.1015 280.0158  1.86232774 20292
BEIDOU IGSO-7 (C16)     
1 43539U 18057A   21085.90699016 -.00000157  00000-0  00000+0 0  9994
2 43539  55.0554 179.6998 0036869 219.6620 222.9771  1.00294568 10025
BEIDOU-3 M9 (C23)       
1 43581U 18062A   21084.71446096  .00000030  00000-0  00000-0 0  9993
2 43581  54.4379 247.4689 0001910 308.0704  56.3558  1.86231773 18074
BEIDOU-3 M10 (C24)      
1 43582U 18062B   21084.56592001  .00000031  00000-0  00000-0 0  9996
2 43582  54.4372 247.4645 0006031  17.3415 338.7822  1.86232037 18062
BEIDOU-3 M11 (C25)      
1 43602U 18067A   21084.58622149  .00000030  00000-0  00000-0 0  9992
2 43602  54.5143 246.0392 0007272   7.0302  45.0425  1.86231568 17564
BEIDOU-3 M12 (C26)      
1 43603U 18067B   21084.75071727  .00000029  00000-0  00000-0 0  9990
2 43603  54.5102 246.0015 0004450   1.2333  71.6094  1.86231568 17586
BEIDOU-3 M13 (C32)      
1 43622U 18072A   21085.13321478  .00000064  00000-0  00000-0 0  9990
2 43622  55.2457 126.4328 0007757 282.3811  77.1401  1.86231581 17096
BEIDOU-3 M14 (C33)      
1 43623U 18072B   21084.99939495  .00000063  00000-0  00000+0 0  9996
2 43623  55.2473 126.4293 0005947 303.0275  57.0076  1.86231542 17104
BEIDOU-3 M15 (C34)      
1 43647U 18078A   21084.66918579 -.00000083  00000-0  10000-3 0  9990
2 43647  55.2131   5.9810 0007758 349.7640  44.1016  1.86232748 16606
BEIDOU-3 M16 (C35)      
1 43648U 18078B   21084.80902196 -.00000082  00000-0  10000-3 0  9994
2 43648  55.2078   5.9825 0005611 358.0565  38.1677  1.86232288 16625
BEIDOU-3 G1 (C59)       
1 43683U 18085A   21085.84436421 -.00000287  00000-0  00000+0 0  9991
2 43683   1.1957 236.9003 0002775  54.5307 337.0902  1.00272386  8930
BEIDOU-3 M17 (C36)      
1 43706U 18093A   21085.24065749  .00000026  00000-0  00000-0 0  9992
2 43706  54.5178 247.3032 0007587 276.2473 305.9234  1.86231782 15977
BEIDOU-3 M18 (C37)      
1 43707U 18093B   21085.35294169  .00000025  00000-0  00000+0 0  9993
2 43707  54.5186 247.2904 0006955 307.5712  80.6581  1.86232034 15980
BEIDOU-3 IGSO-1 (C38)   
1 44204U 19023A   21085.82233101 -.00000182  00000-0  00000+0 0  9996
2 44204  55.9037  57.8137 0015914 206.2705 329.9730  1.00264379  7224
BEIDOU-2 G8             
1 44231U 19027A   21085.65463914 -.00000254  00000-0  00000-0 0  9999
2 44231   0.3828 321.1854 0005582 250.9203 352.3624  1.00275767  6930
BEIDOU-3 IGSO-2 (C39)   
1 44337U 19035A   21085.91631174 -.00000139  00000-0  00000+0 0  9990
2 44337  55.0865 175.7364 0017605 191.1313 253.4000  1.00257182  6560
BEIDOU-3 M23 (C45)      
1 44542U 19061A   21083.79039678  .00000038  00000-0  10000-3 0  9994
2 44542  54.7434 247.4071 0007984 344.3484  29.5987  1.86231264 10218
BEIDOU-3 M24 (C46)      
1 44543U 19061B   21084.96715833  .00000029  00000-0  10000-3 0  9999
2 44543  54.7442 247.3367 0004684 338.3202  15.3291  1.86231709 10237
BEIDOU-3 IGSO-3         
1 44709U 19073A   21085.53316381 -.00000111  00000-0  00000+0 0  9993
2 44709  57.9700 301.0063 0019234 189.3579 349.9782  1.00252127  5319
BEIDOU-3 M21            
1 44793U 19078A   21084.73193612 -.00000083  00000-0  10000-3 0  9995
2 44793  55.0601   6.0590 0007666 356.6914  33.7970  1.86232431  9092
BEIDOU-3 M22            
1 44794U 19078B   21084.92522516 -.00000082  00000-0  00000+0 0  9990
2 44794  55.0367   6.0484 0005767 352.8613  78.0390  1.86232832  9091
BEIDOU-3 M19            
1 44864U 19090A   21085.06639209  .00000063  00000-0  00000-0 0  9995
2 44864  55.1817 126.6712 0017282 265.6962  94.4601  1.86231847  8682
BEIDOU-3 M20            
1 44865U 19090B   21084.93912872  .00000062  00000-0  00000-0 0  9990
2 44865  55.1826 126.7065 0016284 280.5360  84.2241  1.86232041  8666
BEIDOU-3 G2             
1 45344U 20017A   21085.85466015 -.00000150  00000-0  00000+0 0  9997
2 45344   2.5412 334.1695 0002500  71.9091 166.1053  1.00271321  4138
BEIDOU-3 G3             
1 45807U 20040A   21085.82145866 -.00000365  00000-0  00000+0 0  9990
2 45807   2.4753 298.4354 0008794  13.5121 278.7955  1.00274657  2943
